CSS (TIANHE)            
1 48274U 21035A   24192.36166070  .00030242  00000+0  31595-3 0  9999
2 48274  41.4696 301.6484 0004011   7.9030 352.1872 15.63804644182727
